NORAD_CAT_ID,OBJECT_NAME,OBJECT_TYPE,EPOCH,MEAN_MOTION,ECCENTRICITY,INCLINATION,RA_OF_ASC_NODE,ARG_OF_PERICENTER,MEAN_ANOMALY,BSTAR,MEAN_MOTION_DOT,MEAN_MOTION_DDOT,TLE_LINE0,TLE_LINE1,TLE_LINE2,SEMIMAJOR_AXIS,PERIOD,APOGEE,PERIGEE,DECAYED
51776.0,STARLINK-3608,PAYLOAD,2024-04-03 11:10:49,15.08836159,0.0001337,53.2152,264.9926,90.9399,269.1747,0.0010986,0.00017238,0.0,0 STARLINK-3608,1 51776U 22017J   24094.46585093  .00017238  00000-0  10986-2 0  9994,2 51776  53.2152 264.9926 0001337  90.9399 269.1747 15.08836159116108,6917.892,95.438,540.682,538.832,0.0
51776.0,STARLINK-3608,PAYLOAD,2024-04-03 20:43:08,15.08847201,0.0001344,53.2156,263.2087,87.4296,272.685,0.00099158,0.00015531,0.0,0 STARLINK-3608,1 51776U 22017J   24094.86329023  .00015531  00000-0  99158-3 0  9990,2 51776  53.2156 263.2087 0001344  87.4296 272.6850 15.08847201116167,6917.858,95.437,540.653,538.794,0.0
51776.0,STARLINK-3608,PAYLOAD,2024-04-04 11:01:36,15.0885979,0.0001343,53.2151,260.5318,86.3731,273.7415,0.0008251,0.00012875,0.0,0 STARLINK-3608,1 51776U 22017J   24095.45944515  .00012875  00000-0  82510-3 0  9997,2 51776  53.2151 260.5318 0001343  86.3731 273.7415 15.08859790117740,6917.82,95.436,540.614,538.756,0.0
51776.0,STARLINK-3608,PAYLOAD,2024-04-04 14:12:22,15.08847865,0.0001345,53.2152,259.9369,86.3563,273.7582,0.00050876,7.82e-05,0.0,0 STARLINK-3608,1 51776U 22017J   24095.59192999  .00007820  00000-0  50876-3 0  9997,2 51776  53.2152 259.9369 0001345  86.3563 273.7582 15.08847865116276,6917.856,95.437,540.652,538.791,0.0
51776.0,STARLINK-3608,PAYLOAD,2024-04-04 17:23:08,15.08843184,0.000138,53.2156,259.3422,91.254,268.861,0.00022675,3.323e-05,0.0,0 STARLINK-3608,1 51776U 22017J   24095.72440952  .00003323  00000-0  22675-3 0  9997,2 51776  53.2156 259.3422 0001380  91.2540 268.8610 15.08843184117787,6917.871,95.437,540.69,538.781,0.0
51776.0,STARLINK-3608,PAYLOAD,2024-04-05 14:03:09,15.08849588,0.0001536,53.2172,255.475,99.0434,261.0732,0.00025611,3.791e-05,0.0,0 STARLINK-3608,1 51776U 22017J   24096.58552622  .00003791  00000-0  25611-3 0  9992,2 51776  53.2172 255.4750 0001536  99.0434 261.0732 15.08849588116421,6917.851,95.437,540.779,538.654,0.0
51776.0,STARLINK-3608,PAYLOAD,2024-04-05 20:24:41,15.08852046,0.0001333,53.2159,254.2871,88.3597,271.7548,0.00026345,3.909e-05,0.0,0 STARLINK-3608,1 51776U 22017J   24096.85048439  .00003909  00000-0  26345-3 0  9994,2 51776  53.2159 254.2871 0001333  88.3597 271.7548 15.08852046117958,6917.844,95.437,540.631,538.786,0.0
51776.0,STARLINK-3608,PAYLOAD,2024-04-06 10:43:10,15.08843288,0.0001415,53.2163,251.6088,90.706,269.4094,0.0001228,1.667e-05,0.0,0 STARLINK-3608,1 51776U 22017J   24097.44664642  .00001667  00000-0  12280-3 0  9992,2 51776  53.2163 251.6088 0001415  90.7060 269.4094 15.08843288118046,6917.87,95.437,540.714,538.756,0.0
51776.0,STARLINK-3608,PAYLOAD,2024-04-06 17:04:42,15.08836822,0.00014,53.2161,250.4189,90.3041,269.8111,-2.023e-05,-6.1e-06,0.0,0 STARLINK-3608,1 51776U 22017J   24097.71160871 -.00000610  00000-0 -20230-4 0  9991,2 51776  53.2161 250.4189 0001400  90.3041 269.8111 15.08836822116590,6917.89,95.438,540.724,538.787,0.0
51776.0,STARLINK-3608,PAYLOAD,2024-04-07 10:33:57,15.0883588,0.000133,53.2157,247.1474,86.7922,273.3222,-2.4704e-05,-6.81e-06,0.0,0 STARLINK-3608,1 51776U 22017J   24098.44025113 -.00000681  00000-0 -24704-4 0  9999,2 51776  53.2157 247.1474 0001330  86.7922 273.3222 15.08835880116703,6917.893,95.438,540.678,538.838,0.0
51776.0,STARLINK-3608,PAYLOAD,2024-04-07 16:55:30,15.08835732,0.0001731,53.2179,245.9603,96.8271,263.2918,-1.3102e-05,-4.97e-06,0.0,0 STARLINK-3608,1 51776U 22017J   24098.70521193 -.00000497  00000-0 -13102-4 0  9992,2 51776  53.2179 245.9603 0001731  96.8271 263.2918 15.08835732116741,6917.893,95.438,540.956,538.561,0.0
51776.0,STARLINK-3608,PAYLOAD,2024-04-08 02:27:49,15.08841911,0.0001667,53.2188,244.1781,95.3236,264.7946,1.3845e-05,-6.8e-07,0.0,0 STARLINK-3608,1 51776U 22017J   24099.10265187 -.00000068  00000-0  13845-4 0  9992,2 51776  53.2188 244.1781 0001667  95.3236 264.7946 15.08841911118297,6917.875,95.437,540.893,538.586,0.0
51776.0,STARLINK-3608,PAYLOAD,2024-04-08 10:24:45,15.08834914,0.0001826,53.2203,242.692,99.8241,260.2957,0.0001424,1.979e-05,0.0,0 STARLINK-3608,1 51776U 22017J   24099.43385557  .00001979  00000-0  14240-3 0  9992,2 51776  53.2203 242.6920 0001826  99.8241 260.2957 15.08834914116853,6917.896,95.438,541.024,538.498,0.0
51776.0,STARLINK-3608,PAYLOAD,2024-04-08 16:46:17,15.088376,0.0001839,53.2197,241.5024,98.8303,261.2898,0.00014175,1.968e-05,0.0,0 STARLINK-3608,1 51776U 22017J   24099.69881449  .00001968  00000-0  14175-3 0  9996,2 51776  53.2197 241.5024 0001839  98.8303 261.2898 15.08837600116894,6917.888,95.438,541.025,538.481,0.0
51776.0,STARLINK-3608,PAYLOAD,2024-04-09 02:18:36,15.08839482,0.0001906,53.2206,239.7163,86.8576,273.2635,0.00026958,4.005e-05,0.0,0 STARLINK-3608,1 51776U 22017J   24100.09625460  .00004005  00000-0  26958-3 0  9999,2 51776  53.2206 239.7163 0001906  86.8576 273.2635 15.08839482116951,6917.882,95.438,541.066,538.428,0.0
51776.0,STARLINK-3608,PAYLOAD,2024-04-09 18:12:28,15.08832985,0.0002636,53.2172,236.7386,79.5904,280.5385,2.7573e-05,1.5e-06,0.0,0 STARLINK-3608,1 51776U 22017J   24100.75866217  .00000150  00000-0  27573-4 0  9991,2 51776  53.2172 236.7386 0002636  79.5904 280.5385 15.08832985118543,6917.902,95.438,541.59,537.943,0.0
51776.0,STARLINK-3608,PAYLOAD,2024-04-10 14:52:28,15.08839568,0.0001911,53.2167,232.8776,87.9527,272.1684,0.0001078,1.428e-05,0.0,0 STARLINK-3608,1 51776U 22017J   24101.61977874  .00001428  00000-0  10780-3 0  9999,2 51776  53.2167 232.8776 0001911  87.9527 272.1684 15.08839568117188,6917.882,95.438,541.069,538.425,0.0
51776.0,STARLINK-3608,PAYLOAD,2024-04-11 02:00:10,15.08843796,0.0001847,53.2126,230.7927,87.699,272.4213,7.4496e-05,8.98e-06,0.0,0 STARLINK-3608,1 51776U 22017J   24102.08345680  .00000898  00000-0  74496-4 0  9990,2 51776  53.2126 230.7927 0001847  87.6990 272.4213 15.08843796118749,6917.869,95.437,541.012,538.456,0.0
51776.0,STARLINK-3608,PAYLOAD,2024-04-11 14:43:16,15.08837796,0.0001605,53.2149,228.416,84.0455,276.072,0.0001252,1.705e-05,0.0,0 STARLINK-3608,1 51776U 22017J   24102.61337991  .00001705  00000-0  12520-3 0  9992,2 51776  53.2149 228.4160 0001605  84.0455 276.0720 15.08837796117336,6917.887,95.438,540.862,538.642,0.0
51776.0,STARLINK-3608,PAYLOAD,2024-04-12 01:50:57,15.08849844,0.0001781,53.2154,226.3337,87.0072,273.1124,0.00020876,3.037e-05,0.0,0 STARLINK-3608,1 51776U 22017J   24103.07705342  .00003037  00000-0  20876-3 0  9995,2 51776  53.2154 226.3337 0001781  87.0072 273.1124 15.08849844118893,6917.85,95.437,540.947,538.483,0.0
51776.0,STARLINK-3608,PAYLOAD,2024-04-12 12:58:39,15.0883707,0.0001685,53.2162,224.2512,96.6762,263.4422,2.693e-05,1.41e-06,0.0,0 STARLINK-3608,1 51776U 22017J   24103.54074020  .00000141  00000-0  26930-4 0  9990,2 51776  53.2162 224.2512 0001685  96.6762 263.4422 15.08837070118968,6917.889,95.438,540.92,538.589,0.0
51776.0,STARLINK-3608,PAYLOAD,2024-04-12 14:34:03,15.08838142,0.0001694,53.2173,223.9557,88.2943,271.8243,1.5576e-05,-4e-07,0.0,0 STARLINK-3608,1 51776U 22017J   24103.60698024 -.00000040  00000-0  15576-4 0  9996,2 51776  53.2173 223.9557 0001694  88.2943 271.8243 15.08838142117484,6917.886,95.438,540.923,538.579,0.0
51776.0,STARLINK-3608,PAYLOAD,2024-04-13 14:24:49,15.08844151,0.0001469,53.2174,219.4935,101.0352,259.0806,0.00010636,1.405e-05,0.0,0 STARLINK-3608,1 51776U 22017J   24104.60057692  .00001405  00000-0  10636-3 0  9993,2 51776  53.2174 219.4935 0001469 101.0352 259.0806 15.08844151117630,6917.868,95.437,540.749,538.716,0.0
51776.0,STARLINK-3608,PAYLOAD,2024-04-14 12:40:14,15.08837578,0.0001534,53.2171,215.3291,114.4672,245.648,0.00011607,1.56e-05,0.0,0 STARLINK-3608,1 51776U 22017J   24105.52794036  .00001560  00000-0  11607-3 0  9996,2 51776  53.2171 215.3291 0001534 114.4672 245.6480 15.08837578119268,6917.888,95.438,540.814,538.692,0.0
51776.0,STARLINK-3608,PAYLOAD,2024-04-15 12:31:01,15.08834712,0.0001319,53.216,210.8675,102.0499,258.0641,0.00011615,1.561e-05,0.0,0 STARLINK-3608,1 51776U 22017J   24106.52154320  .00001561  00000-0  11615-3 0  9993,2 51776  53.2160 210.8675 0001319 102.0499 258.0641 15.08834712117928,6917.897,95.438,540.674,538.849,0.0
51776.0,STARLINK-3608,PAYLOAD,2024-04-16 06:00:15,15.0884106,0.0001792,53.2186,207.6061,110.1617,249.9568,0.00018201,2.61e-05,0.0,0 STARLINK-3608,1 51776U 22017J   24107.25018141  .00002610  00000-0  18201-3 0  9998,2 51776  53.2186 207.6061 0001792 110.1617 249.9568 15.08841060119525,6917.877,95.437,540.982,538.502,0.0
51776.0,STARLINK-3608,PAYLOAD,2024-04-16 13:57:10,15.08853775,0.0001526,53.2168,206.1096,109.5049,250.6108,0.00032525,4.894e-05,0.0,0 STARLINK-3608,1 51776U 22017J   24107.58137411  .00004894  00000-0  32525-3 0  9997,2 51776  53.2168 206.1096 0001526 109.5049 250.6108 15.08853775118088,6917.838,95.437,540.759,538.648,0.0
51776.0,STARLINK-3608,PAYLOAD,2024-04-17 05:50:59,15.08886993,0.0001391,53.2162,203.1411,120.0062,240.1069,0.000653,0.00010133,0.0,0 STARLINK-3608,1 51776U 22017J   24108.24374593  .00010133  00000-0  65300-3 0  9995,2 51776  53.2162 203.1411 0001391 120.0062 240.1069 15.08886993119677,6917.737,95.435,540.564,538.639,0.0
51776.0,STARLINK-3608,PAYLOAD,2024-04-17 12:12:35,15.08807188,0.0001548,53.2173,201.952,113.7542,246.3612,-0.00057041,-9.346e-05,0.0,0 STARLINK-3608,1 51776U 22017J   24108.50874336 -.00009346  00000-0 -57041-3 0  9993,2 51776  53.2173 201.9520 0001548 113.7542 246.3612 15.08807188119718,6917.981,95.44,540.917,538.775,0.0
51776.0,STARLINK-3608,PAYLOAD,2024-04-17 13:47:58,15.0880705,0.0001332,53.2168,201.6541,93.5063,266.6082,-0.0005555,-9.11e-05,0.0,0 STARLINK-3608,1 51776U 22017J   24108.57498475 -.00009110  00000-0 -55550-3 0  9998,2 51776  53.2168 201.6541 0001332  93.5063 266.6082 15.08807050118236,6917.981,95.44,540.768,538.925,0.0
